{
  "type": "FeatureCollection",
  "features": [
    {
      "type": "Feature",
      "properties": {
        "OBJECTID": "12",
        "DepartmentCode": "169860351",
        "KGISVillageID": "5247",
        "KGISCode": "29565054988031090000HMPOLPUOFFPOS0001",
        "KGISPOL_STAID": "12",
        "POL_STAName": "Hospet Town PS",
        "KGISPSCode": "PS - 12",
        "districtName": "Vijayanagara"
      },
      "geometry": {
        "type": "Point",
        "coordinates": [
          76.3884730002556,
          15.2739760001909
        ]
      }
    },
    {
      "type": "Feature",
      "properties": {
        "OBJECTID": "30",
        "DepartmentCode": "164450338",
        "KGISVillageID": "5007",
        "KGISCode": "29565055008031140000HMPOLPUOFFPOS0004",
        "KGISPOL_STAID": "30",
        "POL_STAName": "Ballari Rural PS",
        "KGISPSCode": "PS - 30",
        "districtName": "Bellary"
      },
      "geometry": {
        "type": "Point",
        "coordinates": [
          76.9250640002023,
          15.1444889998702
        ]
      }
    },
    {
      "type": "Feature",
      "properties": {
        "OBJECTID": "55",
        "DepartmentCode": "164610965",
        "KGISVillageID": "4140",
        "KGISCode": "29559054616008840000HMPOLPUOFFPOS0001",
        "KGISPOL_STAID": "56",
        "POL_STAName": "Shakti Nagar PS",
        "KGISPSCode": "PS - 56",
        "districtName": "Raichur"
      },
      "geometry": {
        "type": "Point",
        "coordinates": [
          77.3533134002243,
          16.370844899622
        ]
      }
    },
    {
      "type": "Feature",
      "properties": {
        "OBJECTID": "87",
        "DepartmentCode": "164431394",
        "KGISVillageID": "15087",
        "KGISCode": "29572055428031620000HMPOLPUOFFPOS0009",
        "KGISPOL_STAID": "90",
        "POL_STAName": "High Grounds PS",
        "KGISPSCode": "PS - 90",
        "districtName": "Bangalore Urban"
      },
      "geometry": {
        "type": "Point",
        "coordinates": [
          77.5927664453475,
          12.9899573531302
        ]
      }
    },
    {
      "type": "Feature",
      "properties": {
        "OBJECTID": "96",
        "DepartmentCode": "164431411",
        "KGISVillageID": "21387",
        "KGISCode": "29572055428031620000HMPOLPUOFFPOS0018",
        "KGISPOL_STAID": "99",
        "POL_STAName": "Byappanahalli PS",
        "KGISPSCode": "PS - 99",
        "districtName": "Bangalore Urban"
      },
      "geometry": {
        "type": "Point",
        "coordinates": [
          77.6568733672614,
          12.99146656405
        ]
      }
    },
    {
      "type": "Feature",
      "properties": {
        "OBJECTID": "100",
        "DepartmentCode": "164431401",
        "KGISVillageID": "30092",
        "KGISCode": "29572055428031620000HMPOLPUOFFPOS0022",
        "KGISPOL_STAID": "103",
        "POL_STAName": "Bharathi Nagar PS",
        "KGISPSCode": "PS - 103",
        "districtName": "Bangalore Urban"
      },
      "geometry": {
        "type": "Point",
        "coordinates": [
          77.6120856003067,
          12.9912025002823
        ]
      }
    },
    {
      "type": "Feature",
      "properties": {
        "OBJECTID": "103",
        "DepartmentCode": "164431403",
        "KGISVillageID": "30092",
        "KGISCode": "29572055428031620000HMPOLPUOFFPOS0025",
        "KGISPOL_STAID": "106",
        "POL_STAName": "Shivajinagar PS",
        "KGISPSCode": "PS - 106",
        "districtName": "Bangalore Urban"
      },
      "geometry": {
        "type": "Point",
        "coordinates": [
          77.6052475001124,
          12.9855097999292
        ]
      }
    },
    {
      "type": "Feature",
      "properties": {
        "OBJECTID": "114",
        "DepartmentCode": "164431364",
        "KGISVillageID": "15081",
        "KGISCode": "29572055428031620000HMPOLPUOFFPOS0073",
        "KGISPOL_STAID": "159",
        "POL_STAName": "Chamarajpet PS",
        "KGISPSCode": "PS - 159",
        "districtName": "Bangalore Urban"
      },
      "geometry": {
        "type": "Point",
        "coordinates": [
          77.5670263999736,
          12.9605426996297
        ]
      }
    },
    {
      "type": "Feature",
      "properties": {
        "OBJECTID": "117",
        "DepartmentCode": "164431431",
        "KGISVillageID": "30092",
        "KGISCode": "29572055428031620000HMPOLPUOFFPOS0076",
        "KGISPOL_STAID": "162",
        "POL_STAName": "Kalasipalya PS",
        "KGISPSCode": "PS - 162",
        "districtName": "Bangalore Urban"
      },
      "geometry": {
        "type": "Point",
        "coordinates": [
          77.5773576933696,
          12.9573704167974
        ]
      }
    },
    {
      "type": "Feature",
      "properties": {
        "OBJECTID": "141",
        "DepartmentCode": "164431350",
        "KGISVillageID": "15491",
        "KGISCode": "29572055428031620000HMPOLPUOFFPOS0035",
        "KGISPOL_STAID": "116",
        "POL_STAName": "Peenya PS",
        "KGISPSCode": "PS - 116",
        "districtName": "Bangalore Urban"
      },
      "geometry": {
        "type": "Point",
        "coordinates": [
          77.5211640244163,
          13.0360401362993
        ]
      }
    },
    {
      "type": "Feature",
      "properties": {
        "OBJECTID": "149",
        "DepartmentCode": "164431354",
        "KGISVillageID": "15112",
        "KGISCode": "29572055428031620000HMPOLPUOFFPOS0042",
        "KGISPOL_STAID": "124",
        "POL_STAName": "Hebbal PS",
        "KGISPSCode": "PS - 124",
        "districtName": "Bangalore Urban"
      },
      "geometry": {
        "type": "Point",
        "coordinates": [
          77.5896609998677,
          13.0383900002421
        ]
      }
    },
    {
      "type": "Feature",
      "properties": {
        "OBJECTID": "158",
        "DepartmentCode": "164431355",
        "KGISVillageID": "15447",
        "KGISCode": "29572055428031620000HMPOLPUOFFPOS0048",
        "KGISPOL_STAID": "133",
        "POL_STAName": "Yelahanka PS",
        "KGISPSCode": "PS - 133",
        "districtName": "Bangalore Urban"
      },
      "geometry": {
        "type": "Point",
        "coordinates": [
          77.594093907309,
          13.0948982140093
        ]
      }
    },
    {
      "type": "Feature",
      "properties": {
        "OBJECTID": "183",
        "DepartmentCode": "164431428",
        "KGISVillageID": "15494",
        "KGISCode": "29572055428031620000HMPOLPUOFFPOS0086",
        "KGISPOL_STAID": "172",
        "POL_STAName": "Kamakshipalya PS",
        "KGISPSCode": "PS - 172",
        "districtName": "Bangalore Urban"
      },
      "geometry": {
        "type": "Point",
        "coordinates": [
          77.5320189022735,
          12.9822236602558
        ]
      }
    },
    {
      "type": "Feature",
      "properties": {
        "OBJECTID": "186",
        "DepartmentCode": "164431424",
        "KGISVillageID": "15116",
        "KGISCode": "29572055428031620000HMPOLPUOFFPOS0089",
        "KGISPOL_STAID": "175",
        "POL_STAName": "Vijayanagar PS",
        "KGISPSCode": "PS - 175",
        "districtName": "Bangalore Urban"
      },
      "geometry": {
        "type": "Point",
        "coordinates": [
          77.538467437727,
          12.9723502644423
        ]
      }
    },
    {
      "type": "Feature",
      "properties": {
        "OBJECTID": "198",
        "DepartmentCode": "169711935",
        "KGISVillageID": "6685",
        "KGISCode": "29562054758030830000HMPOLPUOFFPOS0002",
        "KGISPOL_STAID": "346",
        "POL_STAName": "Ashoknagar PS",
        "KGISPSCode": "PS - 346",
        "districtName": "Dharwad"
      },
      "geometry": {
        "type": "Point",
        "coordinates": [
          75.1318450001869,
          15.3689909999987
        ]
      }
    },
    {
      "type": "Feature",
      "properties": {
        "OBJECTID": "200",
        "DepartmentCode": "169710070",
        "KGISVillageID": "6689",
        "KGISCode": "29562054758030830000HMPOLPUOFFPOS0004",
        "KGISPOL_STAID": "348",
        "POL_STAName": "Hubballi SubUrban PS",
        "KGISPSCode": "PS - 348",
        "districtName": "Dharwad"
      },
      "geometry": {
        "type": "Point",
        "coordinates": [
          75.1392599995464,
          15.3506379996766
        ]
      }
    },
    {
      "type": "Feature",
      "properties": {
        "OBJECTID": "288",
        "DepartmentCode": "169771345",
        "KGISVillageID": "29840",
        "KGISCode": "29584056066261860000HMPOLPUOFFPOS0001",
        "KGISPOL_STAID": "226",
        "POL_STAName": "Bidadi PS",
        "KGISPSCode": "PS - 226",
        "districtName": "Ramanagara"
      },
      "geometry": {
        "type": "Point",
        "coordinates": [
          77.3847750000391,
          12.800368999628
        ]
      }
    },
    {
      "type": "Feature",
      "properties": {
        "OBJECTID": "405",
        "DepartmentCode": "164590883",
        "KGISVillageID": "28460",
        "KGISCode": "29577055728031940000HMPOLPUOFFPOS0017",
        "KGISPOL_STAID": "658",
        "POL_STAName": "Mysore South PS",
        "KGISPSCode": "PS - 658",
        "districtName": "Mysore"
      },
      "geometry": {
        "type": "Point",
        "coordinates": [
          76.6643888891635,
          12.3128250001524
        ]
      }
    },
    {
      "type": "Feature",
      "properties": {
        "OBJECTID": "444",
        "DepartmentCode": "164691216",
        "KGISVillageID": "14824",
        "KGISCode": "29569055228031390000HMPOLPUOFFPOS0001",
        "KGISPOL_STAID": "719",
        "POL_STAName": "Kundapura PS",
        "KGISPSCode": "PS - 719",
        "districtName": "Udupi"
      },
      "geometry": {
        "type": "Point",
        "coordinates": [
          74.6895069997589,
          13.636995999572
        ]
      }
    },
    {
      "type": "Feature",
      "properties": {
        "OBJECTID": "457",
        "DepartmentCode": "164431796",
        "KGISVillageID": "15501",
        "KGISCode": "29572055428031620000HMPOLPUOFFPOS0067",
        "KGISPOL_STAID": "153",
        "POL_STAName": "H.S.R.Layout PS",
        "KGISPSCode": "PS - 153",
        "districtName": "Bangalore Urban"
      },
      "geometry": {
        "type": "Point",
        "coordinates": [
          77.6513889997284,
          12.9201510003798
        ]
      }
    },
    {
      "type": "Feature",
      "properties": {
        "OBJECTID": "547",
        "DepartmentCode": "164432198",
        "KGISVillageID": "21436",
        "KGISCode": "29572055428031620000HMPOLPUOFFPOS0091",
        "KGISPOL_STAID": "783",
        "POL_STAName": "Bellanduru PS",
        "KGISPSCode": "PS - 783",
        "districtName": "Bangalore Urban"
      },
      "geometry": {
        "type": "Point",
        "coordinates": [
          77.6678679998158,
          12.9191619996926
        ]
      }
    },
    {
      "type": "Feature",
      "properties": {
        "OBJECTID": "550",
        "DepartmentCode": "164430259",
        "KGISVillageID": "21491",
        "KGISCode": "29572055428031620000HMPOLPUOFFPOS0094",
        "KGISPOL_STAID": "786",
        "POL_STAName": "Varthur PS",
        "KGISPSCode": "PS - 786",
        "districtName": "Bangalore Urban"
      },
      "geometry": {
        "type": "Point",
        "coordinates": [
          77.7469200001009,
          12.9380340003015
        ]
      }
    },
    {
      "type": "Feature",
      "properties": {
        "OBJECTID": "554",
        "DepartmentCode": "164430258",
        "KGISVillageID": "21434",
        "KGISCode": "29572055428031620000HMPOLPUOFFPOS0098",
        "KGISPOL_STAID": "790",
        "POL_STAName": "Whitefield PS",
        "KGISPSCode": "PS - 790",
        "districtName": "Bangalore Urban"
      },
      "geometry": {
        "type": "Point",
        "coordinates": [
          77.7510760001927,
          12.9753560004434
        ]
      }
    },
    {
      "type": "Feature",
      "properties": {
        "OBJECTID": "574",
        "DepartmentCode": "169801054",
        "KGISVillageID": "26167",
        "KGISCode": "29575055618031810000HMPOLPUOFFPOS0003",
        "KGISPOL_STAID": "811",
        "POL_STAName": "Surathkal PS",
        "KGISPSCode": "PS - 811",
        "districtName": "Dakshina Kannada"
      },
      "geometry": {
        "type": "Point",
        "coordinates": [
          74.8011130002436,
          12.9881750003396
        ]
      }
    },
    {
      "type": "Feature",
      "properties": {
        "OBJECTID": "577",
        "DepartmentCode": "169801041",
        "KGISVillageID": "31454",
        "KGISCode": "29575055618031810000HMPOLPUOFFPOS0004",
        "KGISPOL_STAID": "814",
        "POL_STAName": "Mangaluru North PS",
        "KGISPSCode": "PS - 814",
        "districtName": "Dakshina Kannada"
      },
      "geometry": {
        "type": "Point",
        "coordinates": [
          74.8335019997197,
          12.8642720003151
        ]
      }
    },
    {
      "type": "Feature",
      "properties": {
        "OBJECTID": "581",
        "DepartmentCode": "169801042",
        "KGISVillageID": "31454",
        "KGISCode": "29575055618031810000HMPOLPUOFFPOS0009",
        "KGISPOL_STAID": "819",
        "POL_STAName": "Mangaluru South PS",
        "KGISPSCode": "PS - 819",
        "districtName": "Dakshina Kannada"
      },
      "geometry": {
        "type": "Point",
        "coordinates": [
          74.8399299998815,
          12.8549829999593
        ]
      }
    },
    {
      "type": "Feature",
      "properties": {
        "OBJECTID": "602",
        "DepartmentCode": "164421332",
        "KGISVillageID": "14990",
        "KGISCode": "29572055456133590000HMPOLPUOFFPOS0001",
        "KGISPOL_STAID": "843",
        "POL_STAName": "Attibele PS",
        "KGISPSCode": "PS - 843",
        "districtName": "Bangalore Urban"
      },
      "geometry": {
        "type": "Point",
        "coordinates": [
          77.7716710001049,
          12.7789360000593
        ]
      }
    },
    {
      "type": "Feature",
      "properties": {
        "OBJECTID": "636",
        "DepartmentCode": "164431380",
        "KGISVillageID": "15536",
        "KGISCode": "29572055428031620000HMPOLPUOFFPOS0069",
        "KGISPOL_STAID": "155",
        "POL_STAName": "Madiwala PS",
        "KGISPSCode": "PS - 155",
        "districtName": "Bangalore Urban"
      },
      "geometry": {
        "type": "Point",
        "coordinates": [
          77.620667999617,
          12.9209999998742
        ]
      }
    },
    {
      "type": "Feature",
      "properties": {
        "OBJECTID": "669",
        "DepartmentCode": "164520608",
        "KGISVillageID": "6550",
        "KGISCode": "29562054738030830000HMPOLPUOFFPOS0004",
        "KGISPOL_STAID": "504",
        "POL_STAName": "Dharwad Rural PS",
        "KGISPSCode": "PS - 504",
        "districtName": "Dharwad"
      },
      "geometry": {
        "type": "Point",
        "coordinates": [
          74.9879009494425,
          15.4718184459285
        ]
      }
    },
    {
      "type": "Feature",
      "properties": {
        "OBJECTID": "728",
        "DepartmentCode": "169730055",
        "KGISVillageID": "28453",
        "KGISCode": "29577055728031940000HMPOLPUOFFPOS0005",
        "KGISPOL_STAID": "440",
        "POL_STAName": "Udayagiri PS",
        "KGISPSCode": "PS - 440",
        "districtName": "Mysore"
      },
      "geometry": {
        "type": "Point",
        "coordinates": [
          76.6809440001246,
          12.3267900003402
        ]
      }
    }
  ]
}